[{"OBJECT_NAME":"SL-8 R/B","OBJECT_ID":"1988-053B","EPOCH":"2026-04-24T05:07:13.413216","MEAN_MOTION":14.3894101,"ECCENTRICITY":0.00206718,"INCLINATION":74.0495,"RA_OF_ASC_NODE":28.5498,"ARG_OF_PERICENTER":200.6942,"MEAN_ANOMALY":316.4784,"EPHEMERIS_TYPE":0,"CLASSIFICATION_TYPE":"U","NORAD_CAT_ID":19257,"ELEMENT_SET_NO":999,"REV_AT_EPOCH":98314,"BSTAR":5.7121051e-5,"MEAN_MOTION_DOT":1.5e-6,"MEAN_MOTION_DDOT":0},{"OBJECT_NAME":"COSMOS 1975","OBJECT_ID":"1988-093A","EPOCH":"2026-04-24T07:01:24.535776","MEAN_MOTION":15.28623803,"ECCENTRICITY":0.00119403,"INCLINATION":82.5187,"RA_OF_ASC_NODE":71.8746,"ARG_OF_PERICENTER":20.328,"MEAN_ANOMALY":339.8432,"EPHEMERIS_TYPE":0,"CLASSIFICATION_TYPE":"U","NORAD_CAT_ID":19573,"ELEMENT_SET_NO":999,"REV_AT_EPOCH":2637,"BSTAR":0.00017984434,"MEAN_MOTION_DOT":5.048e-5,"MEAN_MOTION_DDOT":0},{"OBJECT_NAME":"SL-14 R/B","OBJECT_ID":"1988-093B","EPOCH":"2026-04-24T03:12:40.834944","MEAN_MOTION":14.85701878,"ECCENTRICITY":0.00191786,"INCLINATION":82.5334,"RA_OF_ASC_NODE":359.3953,"ARG_OF_PERICENTER":246.158,"MEAN_ANOMALY":227.175,"EPHEMERIS_TYPE":0,"CLASSIFICATION_TYPE":"U","NORAD_CAT_ID":19574,"ELEMENT_SET_NO":999,"REV_AT_EPOCH":776,"BSTAR":2.7166736e-5,"MEAN_MOTION_DOT":2.6e-6,"MEAN_MOTION_DDOT":0},{"OBJECT_NAME":"SL-16 R/B","OBJECT_ID":"1988-102B","EPOCH":"2026-04-24T06:03:28.452960","MEAN_MOTION":14.16157473,"ECCENTRICITY":0.00162469,"INCLINATION":71,"RA_OF_ASC_NODE":55.6241,"ARG_OF_PERICENTER":296.924,"MEAN_ANOMALY":63.0223,"EPHEMERIS_TYPE":0,"CLASSIFICATION_TYPE":"U","NORAD_CAT_ID":19650,"ELEMENT_SET_NO":999,"REV_AT_EPOCH":93334,"BSTAR":-5.4276258e-5,"MEAN_MOTION_DOT":-1.55e-6,"MEAN_MOTION_DDOT":0},{"OBJECT_NAME":"INTERCOSMOS 24","OBJECT_ID":"1989-080A","EPOCH":"2026-04-23T22:07:50.074176","MEAN_MOTION":12.59600005,"ECCENTRICITY":0.1187482,"INCLINATION":82.6035,"RA_OF_ASC_NODE":74.9447,"ARG_OF_PERICENTER":187.776,"MEAN_ANOMALY":170.3379,"EPHEMERIS_TYPE":0,"CLASSIFICATION_TYPE":"U","NORAD_CAT_ID":20261,"ELEMENT_SET_NO":999,"REV_AT_EPOCH":67249,"BSTAR":4.3649e-5,"MEAN_MOTION_DOT":1.65e-6,"MEAN_MOTION_DDOT":0},{"OBJECT_NAME":"SL-14 R/B","OBJECT_ID":"1989-080C","EPOCH":"2026-04-24T03:55:33.202272","MEAN_MOTION":12.50528044,"ECCENTRICITY":0.12309942,"INCLINATION":82.5911,"RA_OF_ASC_NODE":144.0042,"ARG_OF_PERICENTER":80.8653,"MEAN_ANOMALY":292.9328,"EPHEMERIS_TYPE":0,"CLASSIFICATION_TYPE":"U","NORAD_CAT_ID":20262,"ELEMENT_SET_NO":999,"REV_AT_EPOCH":66583,"BSTAR":6.9724349e-5,"MEAN_MOTION_DOT":2.64e-6,"MEAN_MOTION_DDOT":0},{"OBJECT_NAME":"DELTA 1 R/B","OBJECT_ID":"1989-089B","EPOCH":"2026-04-24T03:27:26.939520","MEAN_MOTION":14.50695934,"ECCENTRICITY":0.00684722,"INCLINATION":97.0667,"RA_OF_ASC_NODE":314.3403,"ARG_OF_PERICENTER":340.1621,"MEAN_ANOMALY":19.6917,"EPHEMERIS_TYPE":0,"CLASSIFICATION_TYPE":"U","NORAD_CAT_ID":20323,"ELEMENT_SET_NO":999,"REV_AT_EPOCH":90232,"BSTAR":5.3460126e-5,"MEAN_MOTION_DOT":1.8e-6,"MEAN_MOTION_DDOT":0},{"OBJECT_NAME":"ARIANE 40 R/B","OBJECT_ID":"1990-005H","EPOCH":"2026-04-24T04:34:39.787392","MEAN_MOTION":14.39898002,"ECCENTRICITY":0.00112559,"INCLINATION":98.3,"RA_OF_ASC_NODE":173.4758,"ARG_OF_PERICENTER":71.4515,"MEAN_ANOMALY":288.7896,"EPHEMERIS_TYPE":0,"CLASSIFICATION_TYPE":"U","NORAD_CAT_ID":20443,"ELEMENT_SET_NO":999,"REV_AT_EPOCH":89935,"BSTAR":6.6788836e-5,"MEAN_MOTION_DOT":1.68e-6,"MEAN_MOTION_DDOT":0},{"OBJECT_NAME":"DELTA 2 R/B(1)","OBJECT_ID":"1990-008B","EPOCH":"2026-04-23T15:35:23.296416","MEAN_MOTION":15.6169838,"ECCENTRICITY":0.00748516,"INCLINATION":35.6014,"RA_OF_ASC_NODE":238.4515,"ARG_OF_PERICENTER":320.6588,"MEAN_ANOMALY":38.8728,"EPHEMERIS_TYPE":0,"CLASSIFICATION_TYPE":"U","NORAD_CAT_ID":20453,"ELEMENT_SET_NO":999,"REV_AT_EPOCH":93315,"BSTAR":0.00051406011,"MEAN_MOTION_DOT":0.00053152,"MEAN_MOTION_DDOT":0},{"OBJECT_NAME":"COSMOS 2058","OBJECT_ID":"1990-010A","EPOCH":"2026-04-24T03:03:40.654368","MEAN_MOTION":15.11688289,"ECCENTRICITY":0.00095529,"INCLINATION":82.4695,"RA_OF_ASC_NODE":2.6605,"ARG_OF_PERICENTER":166.5981,"MEAN_ANOMALY":193.5505,"EPHEMERIS_TYPE":0,"CLASSIFICATION_TYPE":"U","NORAD_CAT_ID":20465,"ELEMENT_SET_NO":999,"REV_AT_EPOCH":94910,"BSTAR":0.00012006446,"MEAN_MOTION_DOT":2.074e-5,"MEAN_MOTION_DDOT":0},{"OBJECT_NAME":"SL-14 R/B","OBJECT_ID":"1990-010B","EPOCH":"2026-04-24T06:43:30.228672","MEAN_MOTION":14.83610562,"ECCENTRICITY":0.00206858,"INCLINATION":82.5039,"RA_OF_ASC_NODE":224.5619,"ARG_OF_PERICENTER":146.1986,"MEAN_ANOMALY":214.0553,"EPHEMERIS_TYPE":0,"CLASSIFICATION_TYPE":"U","NORAD_CAT_ID":20466,"ELEMENT_SET_NO":999,"REV_AT_EPOCH":93524,"BSTAR":3.9279022e-5,"MEAN_MOTION_DOT":3.49e-6,"MEAN_MOTION_DDOT":0},{"OBJECT_NAME":"SL-14 R/B","OBJECT_ID":"1990-018B","EPOCH":"2026-04-24T04:57:38.260512","MEAN_MOTION":14.82183542,"ECCENTRICITY":0.00149198,"INCLINATION":82.5234,"RA_OF_ASC_NODE":180.5603,"ARG_OF_PERICENTER":305.0288,"MEAN_ANOMALY":54.9526,"EPHEMERIS_TYPE":0,"CLASSIFICATION_TYPE":"U","NORAD_CAT_ID":20511,"ELEMENT_SET_NO":999,"REV_AT_EPOCH":92932,"BSTAR":2.9484307e-5,"MEAN_MOTION_DOT":2.58e-6,"MEAN_MOTION_DDOT":0},{"OBJECT_NAME":"HST","OBJECT_ID":"1990-037B","EPOCH":"2026-04-24T03:36:34.007040","MEAN_MOTION":15.30126545,"ECCENTRICITY":0.00016934,"INCLINATION":28.4743,"RA_OF_ASC_NODE":89.714,"ARG_OF_PERICENTER":261.8757,"MEAN_ANOMALY":98.1646,"EPHEMERIS_TYPE":0,"CLASSIFICATION_TYPE":"U","NORAD_CAT_ID":20580,"ELEMENT_SET_NO":999,"REV_AT_EPOCH":78028,"BSTAR":0.00016622887,"MEAN_MOTION_DOT":5.216e-5,"MEAN_MOTION_DDOT":0},{"OBJECT_NAME":"SL-16 R/B","OBJECT_ID":"1990-046B","EPOCH":"2026-04-24T05:20:36.707712","MEAN_MOTION":14.15014958,"ECCENTRICITY":0.0016132,"INCLINATION":70.9992,"RA_OF_ASC_NODE":202.2831,"ARG_OF_PERICENTER":239.296,"MEAN_ANOMALY":120.6574,"EPHEMERIS_TYPE":0,"CLASSIFICATION_TYPE":"U","NORAD_CAT_ID":20625,"ELEMENT_SET_NO":999,"REV_AT_EPOCH":85483,"BSTAR":2.8507467e-5,"MEAN_MOTION_DOT":8.0e-8,"MEAN_MOTION_DDOT":0},{"OBJECT_NAME":"COSMOS 2084","OBJECT_ID":"1990-055A","EPOCH":"2026-04-24T05:05:04.796448","MEAN_MOTION":15.05895336,"ECCENTRICITY":0.00099423,"INCLINATION":62.7887,"RA_OF_ASC_NODE":180.2839,"ARG_OF_PERICENTER":209.1712,"MEAN_ANOMALY":150.8834,"EPHEMERIS_TYPE":0,"CLASSIFICATION_TYPE":"U","NORAD_CAT_ID":20663,"ELEMENT_SET_NO":999,"REV_AT_EPOCH":94317,"BSTAR":0.00011393136,"MEAN_MOTION_DOT":1.463e-5,"MEAN_MOTION_DDOT":0},{"OBJECT_NAME":"SL-6 R/B(2)","OBJECT_ID":"1990-055D","EPOCH":"2026-04-24T04:35:05.347104","MEAN_MOTION":15.03788286,"ECCENTRICITY":0.00321455,"INCLINATION":62.7807,"RA_OF_ASC_NODE":99.0889,"ARG_OF_PERICENTER":356.593,"MEAN_ANOMALY":3.4945,"EPHEMERIS_TYPE":0,"CLASSIFICATION_TYPE":"U","NORAD_CAT_ID":20666,"ELEMENT_SET_NO":999,"REV_AT_EPOCH":94503,"BSTAR":0.00013835037,"MEAN_MOTION_DOT":1.726e-5,"MEAN_MOTION_DDOT":0},{"OBJECT_NAME":"SL-8 R/B","OBJECT_ID":"1990-078B","EPOCH":"2026-04-24T05:59:50.567712","MEAN_MOTION":14.90310396,"ECCENTRICITY":0.03563322,"INCLINATION":82.905,"RA_OF_ASC_NODE":210.2978,"ARG_OF_PERICENTER":220.0654,"MEAN_ANOMALY":137.3791,"EPHEMERIS_TYPE":0,"CLASSIFICATION_TYPE":"U","NORAD_CAT_ID":20775,"ELEMENT_SET_NO":999,"REV_AT_EPOCH":81608,"BSTAR":0.00050745573,"MEAN_MOTION_DOT":0.00017309,"MEAN_MOTION_DDOT":0}]
