SL-8 R/B                
1 19257U 88053B   26114.21334969  .00000150  00000+0  57121-4 0  9994
2 19257  74.0495  28.5498 0020671 200.6942 316.4784 14.38941010983149
COSMOS 1975             
1 19573U 88093A   26114.29264509  .00005048  00000+0  17984-3 0  9992
2 19573  82.5187  71.8746 0011940  20.3280 339.8432 15.28623803 26379
SL-14 R/B               
1 19574U 88093B   26114.13380596  .00000260  00000+0  27167-4 0  9997
2 19574  82.5334 359.3953 0019178 246.1580 227.1750 14.85701878  7765
SL-16 R/B               
1 19650U 88102B   26114.25241265 -.00000155  00000+0 -54276-4 0  9991
2 19650  71.0000  55.6241 0016246 296.9240  63.0223 14.16157473933342
INTERCOSMOS 24          
1 20261U 89080A   26113.92210734  .00000165  00000+0  43649-4 0  9998
2 20261  82.6035  74.9447 1187482 187.7760 170.3379 12.59600005672495
SL-14 R/B               
1 20262U 89080C   26114.16357873  .00000264  00000+0  69724-4 0  9994
2 20262  82.5911 144.0042 1230994  80.8653 292.9328 12.50528044665837
DELTA 1 R/B             
1 20323U 89089B   26114.14406180  .00000180  00000+0  53460-4 0  9992
2 20323  97.0667 314.3403 0068472 340.1621  19.6917 14.50695934902324
ARIANE 40 R/B           
1 20443U 90005H   26114.19073828  .00000168  00000+0  66789-4 0  9993
2 20443  98.3000 173.4758 0011255  71.4515 288.7896 14.39898002899353
DELTA 2 R/B(1)          
1 20453U 90008B   26113.64957519  .00053152  00000+0  51406-3 0  9994
2 20453  35.6014 238.4515 0074851 320.6588  38.8728 15.61698380933154
COSMOS 2058             
1 20465U 90010A   26114.12755387  .00002074  00000+0  12006-3 0  9993
2 20465  82.4695   2.6605 0009552 166.5981 193.5505 15.11688289949109
SL-14 R/B               
1 20466U 90010B   26114.28021098  .00000349  00000+0  39279-4 0  9991
2 20466  82.5039 224.5619 0020685 146.1986 214.0553 14.83610562935241
SL-14 R/B               
1 20511U 90018B   26114.20669283  .00000258  00000+0  29484-4 0  9992
2 20511  82.5234 180.5603 0014919 305.0288  54.9526 14.82183542929322
HST                     
1 20580U 90037B   26114.15039360  .00005216  00000+0  16623-3 0  9999
2 20580  28.4743  89.7140 0001693 261.8757  98.1646 15.30126545780280
SL-16 R/B               
1 20625U 90046B   26114.22264708  .00000008  00000+0  28507-4 0  9992
2 20625  70.9992 202.2831 0016132 239.2960 120.6574 14.15014958854836
COSMOS 2084             
1 20663U 90055A   26114.21186107  .00001463  00000+0  11393-3 0  9999
2 20663  62.7887 180.2839 0009942 209.1712 150.8834 15.05895336943172
SL-6 R/B(2)             
1 20666U 90055D   26114.19103411  .00001726  00000+0  13835-3 0  9991
2 20666  62.7807  99.0889 0032145 356.5930   3.4945 15.03788286945035
SL-8 R/B                
1 20775U 90078B   26114.24989083  .00017309  00000+0  50746-3 0  9996
2 20775  82.9050 210.2978 0356332 220.0654 137.3791 14.90310396816087
